{
  "norad_id": 68370,
  "name": "RASSVET-3 OBJECT L",
  "history": [
    {
      "epoch": "2026-03-31T15:45:45.048960Z",
      "apogee_km": 323.7073061727551,
      "perigee_km": 288.19741304090894,
      "latitude_deg": -6.817573414034748e-05,
      "longitude_deg": 34.24167509043891,
      "height_km": 296.3965992083086,
      "semi_major_axis_km": 6684.089359606832,
      "eccentricity": 0.0026563,
      "inclination_deg": 82.297,
      "raan_deg": 99.7104,
      "arg_perigee_deg": 44.4425,
      "mean_anomaly_deg": 315.897,
      "mean_motion_rev_day": 15.88690838
    }
  ]
}